RESOURCESAT-2A
1 41877U 16074A   18094.43640602  .00000015  00000-0  26859-4 0  9992
2 41877  98.6754 170.6741 0001441 117.1585 242.9740 14.21644384 68663
